NORAD_CAT_ID,OBJECT_NAME,OBJECT_TYPE,EPOCH,MEAN_MOTION,ECCENTRICITY,INCLINATION,RA_OF_ASC_NODE,ARG_OF_PERICENTER,MEAN_ANOMALY,BSTAR,MEAN_MOTION_DOT,MEAN_MOTION_DDOT,TLE_LINE0,TLE_LINE1,TLE_LINE2,SEMIMAJOR_AXIS,PERIOD,APOGEE,PERIGEE,DECAYED
50171.0,STARLINK-3286,PAYLOAD,2022-05-26 22:00:00,15.08811181,0.0001921,53.2163,336.6278,41.485,105.2621,0.001988,0.00031468,0.0,0 STARLINK-3286,1 50171U 21125R   22146.91667824  .00031468  00000-0  19880-2 0  9993,2 50171  53.2163 336.6278 0001921  41.4850 105.2621 15.08811181 27365,6917.968000000003,95.439,541.1619999999998,538.505,0.0
50171.0,STARLINK-3286,PAYLOAD,2022-05-27 13:15:01,15.08835588,0.0001831,53.2163,333.7725,47.2718,312.8428,0.00010917,1.4499999999999992e-05,0.0,0 STARLINK-3286,1 50171U 21125R   22147.55210454  .00001450  00000-0  10917-3 0  9998,2 50171  53.2163 333.7725 0001831  47.2718 312.8428 15.08835588 27949,6917.894,95.438,541.026,538.492,0.0
50171.0,STARLINK-3286,PAYLOAD,2022-05-27 22:00:01,15.08837612,0.0001943,53.2158,332.1385,43.0348,138.5449,0.0011871,0.00018654,0.0,0 STARLINK-3286,1 50171U 21125R   22147.91668981  .00018654  00000-0  11871-2 0  9993,2 50171  53.2158 332.1385 0001943  43.0348 138.5449 15.08837612 27514,6917.888000000001,95.438,541.097,538.409,0.0
50171.0,STARLINK-3286,PAYLOAD,2022-05-28 14:00:01,15.08858299,0.0001837,53.2155,329.1442,51.1127,153.6077,-0.00011726,-2.155e-05,0.0,0 STARLINK-3286,1 50171U 21125R   22148.58334491 -.00002155  00000-0 -11726-3 0  9994,2 50171  53.2155 329.1442 0001837  51.1127 153.6077 15.08858299  1306,6917.824000000001,95.436,540.96,538.419,0.0
50171.0,STARLINK-3286,PAYLOAD,2022-05-28 21:02:43,15.08851733,0.0001899,53.216,327.8255,47.0321,313.083,0.00022056,3.225e-05,0.0,0 STARLINK-3286,1 50171U 21125R   22148.87689350  .00003225  00000-0  22056-3 0  9998,2 50171  53.2160 327.8255 0001899  47.0321 313.0830 15.08851733 27658,6917.845,95.437,541.023,538.396,0.0
50171.0,STARLINK-3286,PAYLOAD,2022-05-29 06:00:02,15.08824051,0.0001849,53.2151,326.1508,47.8487,180.1645,-0.00071987,-0.00011722,0.0,0 STARLINK-3286,1 50171U 21125R   22149.25002315 -.00011722  00000-0 -71987-3 0  9991,2 50171  53.2151 326.1508 0001849  47.8487 180.1645 15.08824051 27714,6917.929,95.439,541.073,538.515,0.0
50171.0,STARLINK-3286,PAYLOAD,2022-05-29 14:00:01,15.08832976,0.0001898,53.2152,324.6548,51.8319,187.6749,-0.0010792999999999,-0.00017421,0.0,0 STARLINK-3286,1 50171U 21125R   22149.58334491 -.00017421  00000-0 -10793-2 0  9999,2 50171  53.2152 324.6548 0001898  51.8319 187.6749 15.08832976  1304,6917.901999999999,95.438,541.08,538.4540000000002,0.0
50171.0,STARLINK-3286,PAYLOAD,2022-05-29 20:53:31,15.08833466,0.0001968,53.2174,323.365,49.6092,310.5072,-4.3893e-05,-9.87e-06,0.0,0 STARLINK-3286,1 50171U 21125R   22149.87050709 -.00000987  00000-0 -43893-4 0  9996,2 50171  53.2174 323.3650 0001968  49.6092 310.5072 15.08833466 28297,6917.9,95.438,541.127,538.404,0.0
50171.0,STARLINK-3286,PAYLOAD,2022-05-30 14:00:01,15.08829523,0.00019,53.2153,320.1654,49.6153,224.5852,-0.00083381,-0.0001353,0.0,0 STARLINK-3286,1 50171U 21125R   22150.58334491 -.00013530  00000-0 -83381-3 0  9992,2 50171  53.2153 320.1654 0001900  49.6153 224.5852 15.08829523 27914,6917.9119999999975,95.438,541.092,538.4630000000002,0.0
50171.0,STARLINK-3286,PAYLOAD,2022-05-30 20:44:19,15.08828747,0.0002004,53.2173,318.9042,50.6473,309.4697,-0.00011353,-2.094e-05,0.0,0 STARLINK-3286,1 50171U 21125R   22150.86411687 -.00002094  00000-0 -11353-3 0  9999,2 50171  53.2173 318.9042 0002004  50.6473 309.4697 15.08828747 28441,6917.915,95.438,541.1659999999998,538.393,0.0
50171.0,STARLINK-3286,PAYLOAD,2022-05-31 06:00:02,15.08817737,0.0001911,53.2157,317.172,48.122,249.2986,0.0015789,0.00024914,0.0,0 STARLINK-3286,1 50171U 21125R   22151.25002315  .00024914  00000-0  15789-2 0  9996,2 50171  53.2157 317.1720 0001911  48.1220 249.2986 15.08817737  1300,6917.948,95.439,541.135,538.491,0.0
50171.0,STARLINK-3286,PAYLOAD,2022-05-31 14:00:01,15.08853171,0.0001979,53.2158,315.676,49.4809,259.4515,-0.0011252,-0.00018158,0.0,0 STARLINK-3286,1 50171U 21125R   22151.58334491 -.00018158  00000-0 -11252-2 0  9991,2 50171  53.2158 315.6760 0001979  49.4809 259.4515 15.08853171 28064,6917.84,95.437,541.0740000000002,538.336,0.0
50171.0,STARLINK-3286,PAYLOAD,2022-05-31 22:00:00,15.08827688,0.0002119,53.2158,314.1808,44.6476,275.8955,0.0031675,0.00050468,0.0,0 STARLINK-3286,1 50171U 21125R   22151.91667824  .00050468  00000-0  31675-2 0  9996,2 50171  53.2158 314.1808 0002119  44.6476 275.8955 15.08827688  1307,6917.918000000002,95.438,541.249,538.317,0.0
50171.0,STARLINK-3286,PAYLOAD,2022-06-01 06:00:00,15.08840703,0.000194,53.2162,312.6826,48.7028,283.4495,0.0020681,0.0003278,0.0,0 STARLINK-3286,1 50171U 21125R   22152.25001157  .00032780  00000-0  20681-2 0  9997,2 50171  53.2162 312.6826 0001940  48.7028 283.4495 15.08840703 28164,6917.878000000002,95.438,541.085,538.401,0.0
50171.0,STARLINK-3286,PAYLOAD,2022-06-01 20:00:01,15.08822872,0.0002094,53.2164,310.0657,43.9626,218.5121,0.0026487,0.00042099,0.0,0 STARLINK-3286,1 50171U 21125R   22152.83334491  .00042099  00000-0  26487-2 0  9995,2 50171  53.2164 310.0657 0002094  43.9626 218.5121 15.08822872 28254,6917.933000000001,95.439,541.246,538.349,0.0
50171.0,STARLINK-3286,PAYLOAD,2022-06-02 17:05:53,15.08845035,0.0002448,53.2139,306.1158,61.3006,298.8232,2.8326e-05,1.62e-06,0.0,0 STARLINK-3286,1 50171U 21125R   22153.71242849  .00000162  00000-0  28326-4 0  9999,2 50171  53.2139 306.1158 0002448  61.3006 298.8232 15.08845035 28381,6917.865,95.437,541.423,538.0369999999998,0.0
50171.0,STARLINK-3286,PAYLOAD,2022-06-02 20:16:40,15.08841709,0.000186,53.213,305.5198,32.9899,327.1209,1.6652e-05,-2.3e-07,0.0,0 STARLINK-3286,1 50171U 21125R   22153.84491036 -.00000023  00000-0  16652-4 0  9993,2 50171  53.2130 305.5198 0001860  32.9899 327.1209 15.08841709 28890,6917.875,95.437,541.0269999999998,538.453,0.0
50171.0,STARLINK-3286,PAYLOAD,2022-06-03 02:38:12,15.08841002,0.0001837,53.2137,304.3316,37.8517,322.2604,-4.39e-05,-9.87e-06,0.0,0 STARLINK-3286,1 50171U 21125R   22154.10987227 -.00000987  00000-0 -43900-4 0  9991,2 50171  53.2137 304.3316 0001837  37.8517 322.2604 15.08841002 28443,6917.877,95.437,541.013,538.472,0.0
50171.0,STARLINK-3286,PAYLOAD,2022-06-03 12:10:31,15.08838128,0.0001901,53.2149,302.5481,42.2651,317.8487,-5.464600000000001e-05,-1.158e-05,0.0,0 STARLINK-3286,1 50171U 21125R   22154.50731440 -.00001158  00000-0 -54646-4 0  9999,2 50171  53.2149 302.5481 0001901  42.2651 317.8487 15.08838128 28994,6917.886,95.438,541.066,538.436,0.0
50171.0,STARLINK-3286,PAYLOAD,2022-06-03 18:32:03,15.08844815,0.0001969,53.216,301.36,47.4705,312.6453,-2.6214e-06,-3.3e-06,0.0,0 STARLINK-3286,1 50171U 21125R   22154.77226814 -.00000330  00000-0 -26214-5 0  9994,2 50171  53.2160 301.3600 0001969  47.4705 312.6453 15.08844815 29030,6917.866,95.437,541.0930000000002,538.369,0.0
50171.0,STARLINK-3286,PAYLOAD,2022-06-04 02:28:59,15.08849156,0.0002012,53.217,299.8736,53.2745,306.8432,-9.8968e-07,-3.04e-06,0.0,0 STARLINK-3286,1 50171U 21125R   22155.10346541 -.00000304  00000-0 -98968-6 0  9999,2 50171  53.2170 299.8736 0002012  53.2745 306.8432 15.08849156 28596,6917.852,95.437,541.109,538.326,0.0
50171.0,STARLINK-3286,PAYLOAD,2022-06-04 12:01:18,15.08840008,0.0002209,53.2181,298.091,63.4416,296.6803,1.9769e-05,2.6e-07,0.0,0 STARLINK-3286,1 50171U 21125R   22155.50090915  .00000026  00000-0  19769-4 0  9993,2 50171  53.2181 298.0910 0002209  63.4416 296.6803 15.08840008 28651,6917.88,95.438,541.274,538.217,0.0
50171.0,STARLINK-3286,PAYLOAD,2022-06-05 22:00:00,15.08824242,0.0001943,53.2149,291.7354,44.5132,90.0158,0.00069218,0.0001074,0.0,0 STARLINK-3286,1 50171U 21125R   22156.91667824  .00010740  00000-0  69218-3 0  9995,2 50171  53.2149 291.7354 0001943  44.5132  90.0158 15.08824242 28871,6917.929,95.439,541.138,538.4490000000002,0.0
50171.0,STARLINK-3286,PAYLOAD,2022-06-06 14:00:01,15.08846213,0.0001931,53.2149,288.7423,48.672,109.0237,-0.0013125,-0.0002112,0.0,0 STARLINK-3286,1 50171U 21125R   22157.58334491 -.00021120  00000-0 -13125-2 0  9991,2 50171  53.2149 288.7423 0001931  48.6720 109.0237 15.08846213  1309,6917.861,95.437,541.062,538.391,0.0
50171.0,STARLINK-3286,PAYLOAD,2022-06-06 19:39:48,15.08835797,0.0002128,53.2162,287.6815,52.5279,307.5906,2.9032e-05,1.74e-06,0.0,0 STARLINK-3286,1 50171U 21125R   22157.81931208  .00000174  00000-0  29032-4 0  9996,2 50171  53.2162 287.6815 0002128  52.5279 307.5906 15.08835797 29492,6917.893,95.438,541.23,538.286,0.0
50171.0,STARLINK-3286,PAYLOAD,2022-06-07 02:01:20,15.08844315,0.0001683,53.2162,286.4917,53.653,306.4618,4.1765e-05,3.77e-06,0.0,0 STARLINK-3286,1 50171U 21125R   22158.08426462  .00000377  00000-0  41765-4 0  9999,2 50171  53.2162 286.4917 0001683  53.6530 306.4618 15.08844315 29044,6917.8669999999975,95.437,540.896,538.568,0.0
50171.0,STARLINK-3286,PAYLOAD,2022-06-07 11:33:39,15.08843455,0.0001993,53.2166,284.7072,52.5228,307.5945,3.708e-06,-2.29e-06,0.0,0 STARLINK-3286,1 50171U 21125R   22158.48170663 -.00000229  00000-0  37080-5 0  9995,2 50171  53.2166 284.7072 0001993  52.5228 307.5945 15.08843455 29596,6917.87,95.437,541.114,538.356,0.0
50171.0,STARLINK-3286,PAYLOAD,2022-06-07 19:30:35,15.0885279,0.000182,53.2172,283.2202,49.3569,310.7581,-0.00020169,-3.498e-05,0.0,0 STARLINK-3286,1 50171U 21125R   22158.81290670 -.00003498  00000-0 -20169-3 0  9993,2 50171  53.2172 283.2202 0001820  49.3569 310.7581 15.08852790 29643,6917.840999999999,95.437,540.965,538.447,0.0
50171.0,STARLINK-3286,PAYLOAD,2022-06-08 11:24:26,15.088435999999998,0.0001883,53.217,280.2469,49.0349,311.0806,0.00010091,1.318e-05,0.0,0 STARLINK-3286,1 50171U 21125R   22159.47530178  .00001318  00000-0  10091-3 0  9996,2 50171  53.2170 280.2469 0001883  49.0349 311.0806 15.08843600 29256,6917.869000000002,95.437,541.0369999999998,538.432,0.0
